NORAD_CAT_ID,OBJECT_NAME,OBJECT_TYPE,EPOCH,MEAN_MOTION,ECCENTRICITY,INCLINATION,RA_OF_ASC_NODE,ARG_OF_PERICENTER,MEAN_ANOMALY,BSTAR,MEAN_MOTION_DOT,MEAN_MOTION_DDOT,TLE_LINE0,TLE_LINE1,TLE_LINE2,SEMIMAJOR_AXIS,PERIOD,APOGEE,PERIGEE,DECAYED
49411.0,STARLINK-3162,PAYLOAD,2024-03-22 14:20:52,15.08841465,0.0001044,53.2159,198.2693,96.9812,263.1299,0.00015523,2.184e-05,0.0,0 STARLINK-3162,1 49411U 21104D   24082.59783056  .00002184  00000-0  15523-3 0  9990,2 49411  53.2159 198.2693 0001044  96.9812 263.1299 15.08841465130512,6917.876,95.437,540.463,539.019,0.0
49411.0,STARLINK-3162,PAYLOAD,2024-03-23 12:36:17,15.08832864,0.0001158,53.217,194.105,88.4106,271.7018,-3.4878e-05,-8.43e-06,0.0,0 STARLINK-3162,1 49411U 21104D   24083.52520169 -.00000843  00000-0 -34878-4 0  9995,2 49411  53.2170 194.1050 0001158  88.4106 271.7018 15.08832864131737,6917.902,95.438,540.568,538.966,0.0
49411.0,STARLINK-3162,PAYLOAD,2024-03-23 14:11:40,15.08833954,0.0001188,53.2173,193.8078,92.211,267.9018,-3.0607e-05,-7.75e-06,0.0,0 STARLINK-3162,1 49411U 21104D   24083.59144060 -.00000775  00000-0 -30607-4 0  9994,2 49411  53.2173 193.8078 0001188  92.2110 267.9018 15.08833954130666,6917.899,95.438,540.586,538.942,0.0
49411.0,STARLINK-3162,PAYLOAD,2024-03-24 12:27:04,15.08832922,0.0001104,53.2175,189.6433,96.867,263.2448,8.603e-05,1.081e-05,0.0,0 STARLINK-3162,1 49411U 21104D   24084.51880063  .00001081  00000-0  86030-4 0  9997,2 49411  53.2175 189.6433 0001104  96.8670 263.2448 15.08832922130801,6917.902,95.438,540.531,539.003,0.0
49411.0,STARLINK-3162,PAYLOAD,2024-03-25 05:56:18,15.08835142,0.0001211,53.2174,186.3716,112.72,247.392,0.00015793,2.226e-05,0.0,0 STARLINK-3162,1 49411U 21104D   24085.24743901  .00002226  00000-0  15793-3 0  9996,2 49411  53.2174 186.3716 0001211 112.7200 247.3920 15.08835142131990,6917.895,95.438,540.598,538.922,0.0
49411.0,STARLINK-3162,PAYLOAD,2024-03-25 13:53:14,15.08841778,0.0001266,53.2171,184.8904,87.5083,272.6054,0.00022092,3.23e-05,0.0,0 STARLINK-3162,1 49411U 21104D   24085.57863653  .00003230  00000-0  22092-3 0  9995,2 49411  53.2171 184.8904 0001266  87.5083 272.6054 15.08841778132045,6917.875,95.437,540.616,538.864,0.0
49411.0,STARLINK-3162,PAYLOAD,2024-03-26 12:08:40,15.08822992,0.0001338,53.2171,180.7243,118.2719,241.8408,-8.1096e-06,-4.17e-06,0.0,0 STARLINK-3162,1 49411U 21104D   24086.50601875 -.00000417  00000-0 -81096-5 0  9992,2 49411  53.2171 180.7243 0001338 118.2719 241.8408 15.08822992132187,6917.932,95.439,540.723,538.872,0.0
49411.0,STARLINK-3162,PAYLOAD,2024-03-26 13:44:03,15.0881767,0.0001317,53.2175,180.4287,94.7943,265.3199,-2.5946e-05,-7e-06,0.0,0 STARLINK-3162,1 49411U 21104D   24086.57226472 -.00000700  00000-0 -25946-4 0  9991,2 49411  53.2175 180.4287 0001317  94.7943 265.3199 15.08817670131117,6917.949,95.439,540.725,538.903,0.0
49411.0,STARLINK-3162,PAYLOAD,2024-03-26 23:16:21,15.08828839,0.0001319,53.2172,178.6431,120.32,239.7922,-3.1724e-05,-7.93e-06,0.0,0 STARLINK-3162,1 49411U 21104D   24086.96969763 -.00000793  00000-0 -31724-4 0  9994,2 49411  53.2172 178.6431 0001319 120.3200 239.7922 15.08828839132252,6917.915,95.438,540.692,538.867,0.0
49411.0,STARLINK-3162,PAYLOAD,2024-03-27 13:34:48,15.08853187,0.0001349,53.217,175.9694,100.8903,259.2241,0.00015206,2.134e-05,0.0,0 STARLINK-3162,1 49411U 21104D   24087.56583903  .00002134  00000-0  15206-3 0  9994,2 49411  53.2170 175.9694 0001349 100.8903 259.2241 15.08853187132342,6917.84,95.437,540.638,538.772,0.0
49411.0,STARLINK-3162,PAYLOAD,2024-03-28 05:28:41,15.08827789,0.0001576,53.2168,172.9929,118.7745,241.3405,0.00013868,1.919e-05,0.0,0 STARLINK-3162,1 49411U 21104D   24088.22825382  .00001919  00000-0  13868-3 0  9990,2 49411  53.2168 172.9929 0001576 118.7745 241.3405 15.08827789132445,6917.918,95.438,540.873,538.692,0.0
49411.0,STARLINK-3162,PAYLOAD,2024-03-28 11:50:13,15.08830971,0.0001279,53.216,171.8052,107.4975,252.6157,0.00019799,2.864e-05,0.0,0 STARLINK-3162,1 49411U 21104D   24088.49321052  .00002864  00000-0  19799-3 0  9993,2 49411  53.2160 171.8052 0001279 107.4975 252.6157 15.08830971131403,6917.908,95.438,540.658,538.888,0.0
49411.0,STARLINK-3162,PAYLOAD,2024-03-28 15:00:59,15.08837246,0.0001512,53.217,171.2087,102.8263,257.2898,0.00024617,3.632e-05,0.0,0 STARLINK-3162,1 49411U 21104D   24088.62568546  .00003632  00000-0  24617-3 0  9998,2 49411  53.2170 171.2087 0001512 102.8263 257.2898 15.08837246132502,6917.889,95.438,540.8,538.708,0.0
49411.0,STARLINK-3162,PAYLOAD,2024-03-29 05:19:27,15.08852534,0.0002178,53.2172,168.533,98.5054,261.6185,0.00010066,1.315e-05,0.0,0 STARLINK-3162,1 49411U 21104D   24089.22184058  .00001315  00000-0  10066-3 0  9996,2 49411  53.2172 168.5330 0002178  98.5054 261.6185 15.08852534132596,6917.842,95.437,541.214,538.2,0.0
49411.0,STARLINK-3162,PAYLOAD,2024-03-29 11:41:00,15.08842589,0.0001442,53.2163,167.344,108.001,252.1139,3.3477e-05,2.45e-06,0.0,0 STARLINK-3162,1 49411U 21104D   24089.48680576  .00000245  00000-0  33477-4 0  9993,2 49411  53.2163 167.3440 0001442 108.0010 252.1139 15.08842589132635,6917.872,95.437,540.735,538.74,0.0
49411.0,STARLINK-3162,PAYLOAD,2024-03-30 11:31:47,15.08832912,0.0001641,53.2188,162.8841,93.9031,266.2149,-4.0892e-05,-9.39e-06,0.0,0 STARLINK-3162,1 49411U 21104D   24090.48041222 -.00000939  00000-0 -40892-4 0  9995,2 49411  53.2188 162.8841 0001641  93.9031 266.2149 15.08832912132785,6917.902,95.438,540.902,538.632,0.0
49411.0,STARLINK-3162,PAYLOAD,2024-03-31 05:01:01,15.08835887,0.0001473,53.2172,159.6124,91.8505,268.2656,7.9804e-05,9.82e-06,0.0,0 STARLINK-3162,1 49411U 21104D   24091.20904756  .00000982  00000-0  79804-4 0  9997,2 49411  53.2172 159.6124 0001473  91.8505 268.2656 15.08835887132893,6917.893,95.438,540.777,538.739,0.0
49411.0,STARLINK-3162,PAYLOAD,2024-03-31 11:22:33,15.08843467,0.0001454,53.217,158.4237,91.4337,268.6822,0.00014438,2.011e-05,0.0,0 STARLINK-3162,1 49411U 21104D   24091.47400173  .00002011  00000-0  14438-3 0  9996,2 49411  53.2170 158.4237 0001454  91.4337 268.6822 15.08843467132938,6917.87,95.437,540.741,538.729,0.0
49411.0,STARLINK-3162,PAYLOAD,2024-03-31 20:54:51,15.0885585,0.0001454,53.218,156.6397,88.7806,271.3353,0.00015035,2.107e-05,0.0,0 STARLINK-3162,1 49411U 21104D   24091.87143151  .00002107  00000-0  15035-3 0  9990,2 49411  53.2180 156.6397 0001454  88.7806 271.3353 15.08855850132991,6917.832,95.437,540.703,538.691,0.0
49411.0,STARLINK-3162,PAYLOAD,2024-04-01 04:51:50,15.08817321,0.0001472,53.2172,155.1528,88.0753,272.0408,-2.723e-06,-3.31e-06,0.0,0 STARLINK-3162,1 49411U 21104D   24092.20266222 -.00000331  00000-0 -27230-5 0  9994,2 49411  53.2172 155.1528 0001472  88.0753 272.0408 15.08817321133043,6917.95,95.439,540.833,538.796,0.0
49411.0,STARLINK-3162,PAYLOAD,2024-04-01 11:13:22,15.08824186,0.0001551,53.2174,153.9651,94.1753,265.9416,8.1575e-05,1.01e-05,0.0,0 STARLINK-3162,1 49411U 21104D   24092.46762048  .00001010  00000-0  81575-4 0  9993,2 49411  53.2174 153.9651 0001551  94.1753 265.9416 15.08824186133085,6917.929,95.439,540.867,538.721,0.0
49411.0,STARLINK-3162,PAYLOAD,2024-04-01 20:45:40,15.08834631,0.0001696,53.2166,152.1812,97.5738,262.5447,2.4416e-05,1e-06,0.0,0 STARLINK-3162,1 49411U 21104D   24092.86505262  .00000100  00000-0  24416-4 0  9990,2 49411  53.2166 152.1812 0001696  97.5738 262.5447 15.08834631133146,6917.897,95.438,540.935,538.589,0.0
49411.0,STARLINK-3162,PAYLOAD,2024-04-02 11:04:08,15.08847902,0.0001532,53.216,149.5039,95.3099,264.8068,0.00023244,3.414e-05,0.0,0 STARLINK-3162,1 49411U 21104D   24093.46120707  .00003414  00000-0  23244-3 0  9992,2 49411  53.2160 149.5039 0001532  95.3099 264.8068 15.08847902133235,6917.856,95.437,540.781,538.661,0.0
49411.0,STARLINK-3162,PAYLOAD,2024-04-03 12:30:18,15.08843569,0.0001454,53.2154,144.7453,95.0227,265.0931,0.00011859,1.6e-05,0.0,0 STARLINK-3162,1 49411U 21104D   24094.52104839  .00001600  00000-0  11859-3 0  9992,2 49411  53.2154 144.7453 0001454  95.0227 265.0931 15.08843569133392,6917.869,95.437,540.74,538.729,0.0
49411.0,STARLINK-3162,PAYLOAD,2024-04-03 20:27:14,15.08847786,0.0001444,53.2157,143.2583,89.5643,270.5514,0.00020952,3.049e-05,0.0,0 STARLINK-3162,1 49411U 21104D   24094.85224698  .00003049  00000-0  20952-3 0  9997,2 49411  53.2157 143.2583 0001444  89.5643 270.5514 15.08847786132361,6917.857,95.437,540.721,538.723,0.0
49411.0,STARLINK-3162,PAYLOAD,2024-04-04 10:45:42,15.08843338,0.000141,53.2156,140.5821,90.1597,269.9557,5.0764e-05,5.2e-06,0.0,0 STARLINK-3162,1 49411U 21104D   24095.44840824  .00000520  00000-0  50764-4 0  9994,2 49411  53.2156 140.5821 0001410  90.1597 269.9557 15.08843338132452,6917.87,95.437,540.711,538.76,0.0
49411.0,STARLINK-3162,PAYLOAD,2024-04-04 20:18:01,15.08848134,0.0001405,53.216,138.7982,89.7484,270.3669,0.00015244,2.139e-05,0.0,0 STARLINK-3162,1 49411U 21104D   24095.84584506  .00002139  00000-0  15244-3 0  9991,2 49411  53.2160 138.7982 0001405  89.7484 270.3669 15.08848134133592,6917.856,95.437,540.692,538.749,0.0
49411.0,STARLINK-3162,PAYLOAD,2024-04-05 12:11:52,15.08847197,0.0001444,53.2164,135.8242,92.0623,268.0535,0.00010705,1.416e-05,0.0,0 STARLINK-3162,1 49411U 21104D   24096.50824382  .00001416  00000-0  10705-3 0  9998,2 49411  53.2164 135.8242 0001444  92.0623 268.0535 15.08847197132614,6917.858,95.437,540.722,538.724,0.0
49411.0,STARLINK-3162,PAYLOAD,2024-04-06 02:30:20,15.08841988,0.0001435,53.2159,133.1477,93.0464,267.0693,0.00010383,1.365e-05,0.0,0 STARLINK-3162,1 49411U 21104D   24097.10440527  .00001365  00000-0  10383-3 0  9995,2 49411  53.2159 133.1477 0001435  93.0464 267.0693 15.08841988133788,6917.874,95.437,540.732,538.747,0.0
49411.0,STARLINK-3162,PAYLOAD,2024-04-06 08:51:53,15.08836525,0.0001445,53.2162,131.9585,90.6627,269.4531,3.6637e-05,2.95e-06,0.0,0 STARLINK-3162,1 49411U 21104D   24097.36937016  .00000295  00000-0  36637-4 0  9999,2 49411  53.2162 131.9585 0001445  90.6627 269.4531 15.08836525133826,6917.891,95.438,540.756,538.756,0.0
